{"type":"FeatureCollection","licence":"Data © OpenStreetMap contributors, ODbL 1.0. http://osm.org/copyright","features":[{"type":"Feature","properties":{"name":"Province of Antique","osmRelationId":1506746,"source":"OpenStreetMap"},"bbox":[121.1450673,10.2712376,122.332383,12.279476],"geometry":{"type":"Polygon","coordinates":[[[121.1450673,11.8601328],[121.1468832,11.841053],[121.1488247,11.8316056],[121.1552324,11.8119694],[121.1645882,11.7935173],[121.1766752,11.7766762],[121.1912525,11.7618014],[121.2081468,11.7491506],[121.2305027,11.736454],[121.241231,11.7314148],[121.2523603,11.7273062],[121.2729339,11.7223764],[121.2916856,11.7206584],[121.3086411,11.7174262],[121.3286134,11.7163702],[121.344338,11.7176483],[121.3584627,11.7103778],[121.3798537,11.7030623],[121.4027355,11.699192],[121.4234219,11.6989802],[121.4520879,11.6921518],[121.4753185,11.689256],[121.4873177,11.6892713],[121.5034802,11.6909513],[121.518026,11.6903808],[121.5282529,11.6909091],[121.5693184,11.6976568],[121.5850146,11.7014651],[121.5757151,11.6906194],[121.5694075,11.681838],[121.559028,11.6629434],[121.5532614,11.6476517],[121.5504731,11.6371147],[121.5475389,11.6155528],[121.548181,11.5938093],[121.5498682,11.5829097],[121.553725,11.5679581],[121.5667024,11.5360984],[121.5775454,11.5179215],[121.5874554,11.5055469],[121.59485,11.4979619],[121.6124739,11.4837881],[121.6226868,11.4774996],[121.6338536,11.4719127],[121.6529929,11.4649764],[121.6821634,11.4590932],[121.7043725,11.4581777],[121.7193593,11.4595396],[121.7294314,11.4613745],[121.7393424,11.4639344],[121.7526404,11.4686462],[121.7533854,11.4562994],[121.7559344,11.4409535],[121.762879,11.4192837],[121.7536897,11.4268189],[121.7406114,11.4355182],[121.726601,11.4426898],[121.7118435,11.448239],[121.6959099,11.4522209],[121.6790449,11.4543674],[121.6620384,11.4544581],[121.6507507,11.4533745],[121.6394597,11.45137],[121.6238565,11.4469979],[121.6088874,11.4408554],[121.5947607,11.4330281],[121.5859086,11.4269268],[121.5736158,11.4165444],[121.562656,11.4048155],[121.5531816,11.3919033],[121.543084,11.373159],[121.539193,11.3632616],[121.5348335,11.3478527],[121.5323891,11.3324147],[121.5317791,11.3220133],[121.5324023,11.3064023],[121.5338917,11.2957886],[121.5361772,11.2854514],[121.5415673,11.2683767],[121.5457662,11.2585514],[121.553403,11.2446718],[121.5595942,11.2356721],[121.569732,11.2236637],[121.5777279,11.2158975],[121.5899195,11.2061785],[121.6083319,11.1951823],[121.6284419,11.1870635],[121.6494019,11.1821776],[121.6654921,11.1806556],[121.676272,11.1806752],[121.697662,11.183193],[121.7183893,11.1889559],[121.7388357,11.1981749],[121.7566631,11.2098511],[121.7725692,11.2242353],[121.7856007,11.2402682],[121.791148,11.2489663],[121.7981667,11.2627251],[121.8049575,11.2821178],[121.8089385,11.3043169],[121.8091219,11.3271593],[121.8058821,11.347999],[121.7996165,11.3674589],[121.8121449,11.3575625],[121.8212453,11.3517176],[121.8407131,11.3422286],[121.8509589,11.3386437],[121.8726676,11.3329082],[121.8927703,11.3292104],[121.8896802,11.3069362],[121.8895528,11.296429],[121.8908072,11.2801412],[121.894888,11.259915],[121.9025635,11.2395034],[121.8989889,11.2255821],[121.8973695,11.2153352],[121.8958095,11.1866356],[121.8972111,11.1697516],[121.9017148,11.1422039],[121.9000267,11.1265352],[121.8999168,11.1111311],[121.9015973,11.0958151],[121.9041618,11.0840543],[121.9042861,11.0669446],[121.9060409,11.0513682],[121.8957611,11.0407281],[121.8862637,11.0285367],[121.8665752,11.0001281],[121.8581859,10.9845552],[121.8505956,10.96419],[121.8439568,10.9350739],[121.8373984,10.9183615],[121.8288916,10.900896],[121.8252767,10.8907696],[121.8204563,10.8712148],[121.8137169,10.8492271],[121.7971099,10.816721],[121.7932032,10.8066239],[121.7889154,10.7909841],[121.7861869,10.7691191],[121.7864921,10.7527575],[121.7886594,10.7371676],[121.7935428,10.7186407],[121.797278,10.7084903],[121.8063137,10.6885086],[121.814844,10.6722714],[121.8236214,10.6595233],[121.8362275,10.6450133],[121.8324949,10.6274626],[121.8307649,10.6113527],[121.8200947,10.6024121],[121.8126021,10.5948601],[121.7995295,10.578148],[121.7892666,10.5596377],[121.7820637,10.5397813],[121.7796675,10.5294991],[121.7776227,10.5138094],[121.7774599,10.4979923],[121.7787364,10.4852326],[121.775502,10.4601079],[121.7749144,10.4488762],[121.7764142,10.4273685],[121.7792265,10.4137813],[121.7801737,10.4006691],[121.7831293,10.3848089],[121.7876649,10.3700787],[121.7963057,10.35141],[121.8082484,10.3335556],[121.8190782,10.3214306],[121.8313017,10.3106644],[121.8494627,10.2986865],[121.864228,10.2916523],[121.8824242,10.2854665],[121.8979745,10.2820917],[121.9096199,10.2807703],[121.92359,10.2761665],[121.9336845,10.273833],[121.9501855,10.271652],[121.9688172,10.2713999],[121.9911905,10.2743269],[122.0098166,10.2796807],[122.0302294,10.2886428],[122.0488922,10.3007486],[122.0574102,10.307883],[122.0725958,10.3225431],[122.0896624,10.3326036],[122.1056812,10.3452126],[122.1168395,10.3559712],[122.1341977,10.3754461],[122.1434698,10.3871996],[122.0526526,10.4644629],[122.0308835,10.4683847],[122.0282805,10.4668866],[122.024384,10.4681758],[122.0213941,10.4681635],[122.0168578,10.471314],[122.0146749,10.4746313],[122.0137621,10.4770248],[122.0130288,10.4867752],[122.0115302,10.494174],[122.0182001,10.5004282],[122.0161485,10.5019578],[122.0148859,10.5110242],[122.0166219,10.5173195],[122.0170496,10.5389886],[122.0188983,10.549406],[122.0177485,10.5497384],[122.0176583,10.5507137],[122.0203295,10.5550231],[122.0224657,10.5563709],[122.0231033,10.5615091],[122.0218079,10.5634379],[122.021759,10.5740616],[122.0239308,10.5806049],[122.0240226,10.5862429],[122.032593,10.6022911],[122.0353488,10.609649],[122.0322555,10.6215384],[122.0328809,10.6250536],[122.0456001,10.6330521],[122.0464101,10.6402644],[122.0475518,10.6421016],[122.049752,10.6430055],[122.0501972,10.6485993],[122.0590108,10.6578617],[122.0640835,10.6763994],[122.0703571,10.6797786],[122.0734821,10.6914346],[122.075953,10.6921011],[122.079904,10.6980446],[122.0840423,10.7025098],[122.0992005,10.7069571],[122.1150284,10.7175364],[122.1339833,10.735625],[122.1640026,10.7585666],[122.1770704,10.761033],[122.180384,10.765718],[122.186125,10.779477],[122.192432,10.791126],[122.199305,10.800068],[122.203242,10.808415],[122.205382,10.818781],[122.207294,10.837313],[122.208101,10.839515],[122.212271,10.844467],[122.222742,10.854096],[122.227151,10.860745],[122.245154,10.876884],[122.247621,10.881837],[122.2483,10.898581],[122.2493,10.905094],[122.250391,10.907571],[122.256265,10.911972],[122.263463,10.914813],[122.293489,10.929799],[122.294959,10.932642],[122.295342,10.936404],[122.2885,10.959344],[122.287558,10.96384],[122.288604,10.968106],[122.291304,10.970627],[122.308492,10.975665],[122.3245,10.983685],[122.326822,10.986528],[122.324468,10.999145],[122.319364,11.008001],[122.316958,11.015984],[122.317767,11.020846],[122.322924,11.030863],[122.331812,11.054648],[122.332383,11.057721],[122.327992,11.069192],[122.319009,11.080802],[122.292432,11.106458],[122.270775,11.129818],[122.25957,11.143723],[122.249781,11.154095],[122.239623,11.162679],[122.223103,11.172387],[122.203602,11.186901],[122.201888,11.188811],[122.199582,11.195003],[122.198391,11.20471],[122.194523,11.208504],[122.190076,11.215187],[122.187574,11.229007],[122.1869865,11.242565],[122.183011,11.281358],[122.184207,11.302178],[122.183453,11.307807],[122.177587,11.318105],[122.173281,11.322729],[122.166517,11.335544],[122.167087,11.338564],[122.175664,11.350137],[122.180832,11.361712],[122.181502,11.374159],[122.177867,11.39315],[122.176306,11.396583],[122.167547,11.398143],[122.159073,11.400938],[122.15699,11.402952],[122.156329,11.406155],[122.160124,11.418417],[122.159988,11.428073],[122.15805,11.433748],[122.155306,11.43741],[122.153745,11.441574],[122.150867,11.458507],[122.139269,11.463911],[122.128001,11.46744],[122.125114,11.469454],[122.118301,11.480257],[122.11745,11.483048],[122.120249,11.491696],[122.124041,11.498741],[122.125276,11.50414],[122.124857,11.516999],[122.125948,11.520842],[122.127938,11.522122],[122.130876,11.526285],[122.144945,11.537078],[122.146415,11.539274],[122.140878,11.545729],[122.132832,11.552504],[122.130514,11.556029],[122.129286,11.561612],[122.130574,11.57868],[122.131476,11.581196],[122.133324,11.583575],[122.143888,11.591853],[122.141951,11.599358],[122.138166,11.605766],[122.137552,11.608832],[122.137984,11.617938],[122.136472,11.623155],[122.1394951,11.6270792],[122.1409383,11.6321209],[122.1413525,11.6395564],[122.1405526,11.6421016],[122.141667,11.6471459],[122.1463391,11.6575324],[122.158724,11.6716224],[122.166955,11.6848066],[122.1750307,11.7061686],[122.1771283,11.7095063],[122.178649,11.719211],[122.1777051,11.7190056],[122.1763417,11.7228052],[122.1742965,11.7225485],[122.1741392,11.7265021],[122.1709928,11.7273236],[122.1716221,11.7292747],[122.1706257,11.7330742],[122.1681086,11.7333822],[122.1687904,11.7390814],[122.1698916,11.7404676],[122.1620256,11.7582829],[122.1527252,11.7617816],[122.1275499,11.7620655],[122.1235046,11.7797838],[122.093282,11.779534],[122.073544,11.792127],[122.0672,11.794006],[122.039034,11.807975],[122.033356,11.815802],[122.017021,11.817685],[121.988095,11.827719],[121.979429,11.827723],[121.965601,11.825533],[121.947133,11.823893],[121.931837,11.821109],[121.920186,11.816812],[121.90768,11.80762],[121.903212,11.806545],[121.900765,11.804466],[121.899012,11.802087],[121.89427,11.790054],[121.88811,11.78301],[121.877738,11.778988],[121.863909,11.77547],[121.8488498,11.76937],[121.7707836,11.8434168],[121.7394054,11.852633],[121.7318624,11.8433451],[121.723202,11.8302038],[121.7161545,11.8161696],[121.7108142,11.8014313],[121.7072528,11.7861869],[121.7055177,11.7706415],[121.7056321,11.7550039],[121.7070997,11.7424104],[121.6858051,11.7436602],[121.6640989,11.742033],[121.64227,11.7368905],[121.6317493,11.7330304],[121.6201159,11.7275683],[121.6240388,11.7309032],[121.6316023,11.7402007],[121.6506261,11.7684443],[121.6567921,11.7815142],[121.6577572,11.7845493],[121.6570028,11.7874155],[121.6807366,11.8096364],[121.6919036,11.8225379],[121.6986257,11.8321112],[121.7069611,11.8469301],[121.7122493,11.859301],[121.7161116,11.8715139],[121.7186661,11.8832301],[121.7201504,11.894997],[121.7205842,11.9070173],[121.7190014,11.9293217],[121.7158507,11.9481865],[121.7085882,11.9744009],[121.7049017,11.9850341],[121.7036438,11.9992509],[121.7015191,12.0103308],[121.6980405,12.0227272],[121.7083025,12.039999],[121.7126456,12.0497259],[121.716202,12.0597577],[121.7210944,12.0808805],[121.7227124,12.100984],[121.7222636,12.1127087],[121.7207886,12.1250411],[121.7181732,12.137189],[121.7144392,12.1490505],[121.7092561,12.161729],[121.7036108,12.1727019],[121.694235,12.1869761],[121.683338,12.2000797],[121.6751261,12.2080897],[121.6570687,12.2218462],[121.6368424,12.2329973],[121.6147971,12.2409511],[121.59288,12.2449963],[121.5817136,12.245699],[121.5682888,12.2453004],[121.5638339,12.2585978],[121.5597957,12.2676682],[121.5556835,12.2701226],[121.4944324,12.279476],[121.4708398,12.2732621],[121.4451916,12.2626044],[121.3839414,12.2129597],[121.3550899,12.202161],[121.3445391,12.200004],[121.3327358,12.1775392],[121.2670731,12.1313268],[121.2423192,12.1092496],[121.2371426,12.0971939],[121.2104314,12.0464539],[121.2139337,12.0316061],[121.2170961,12.022542],[121.2209518,12.0136128],[121.2303348,11.9970077],[121.2324183,11.9899706],[121.2141532,11.9809873],[121.1975435,11.9698185],[121.1832336,11.957012],[121.1689656,11.9396608],[121.1579356,11.9205691],[121.150305,11.9004166],[121.146007,11.8793293],[121.1450673,11.8601328]]]}}]}
